UNKNOWN                 
1 81833U          25178.74439368  .00000086  00000+0  28578-3 0  9996
2 81833  90.2390 359.2032 0029556 102.7986 257.6438 12.93649221430799
UNKNOWN                 
1 81838U          25180.87884572  .00003547  00000+0  84255-3 0  9998
2 81838  67.7624 338.8985 0038567 182.1804 333.9898 14.54511967609190
UNKNOWN                 
1 81844U          25180.37019093  .00002083  00000+0  77091-3 0  9992
2 81844  82.9103  58.5805 0064142 304.7671  54.7488 14.30847665599087
UNKNOWN                 
1 81845U          25178.30912528  .00002265  00000+0  25975-3 0  9994
2 81845  97.6818  11.5087 0090881 137.9659  34.2826 14.83901882624534
UNKNOWN                 
1 81864U          25176.06191816  .00001155  00000+0  49560-3 0  9998
2 81864  65.6742 105.4132 0756946  87.6655 281.0767 13.31725908528105
UNKNOWN                 
1 81865U 87062    25181.67126451  .00000847  00000+0  69326-3 0  9997
2 81865  82.8047 156.0474 0065524 112.7092  10.7444 13.87431748585655
UNKNOWN                 
1 81893U 70025    25179.68302728  .00000701  00000+0  76777-3 0  9997
2 81893 100.0268 154.0348 0021031 341.6530  18.3857 13.76265865581096
UNKNOWN                 
1 81899U          25180.65604773  .00000666  00000+0  16605-2 0  9996
2 81899 102.4163 252.6358 0181126 202.9836 156.3090 13.19802128557077
UNKNOWN                 
1 81921U          25179.21760709  .00001103  00000+0  45412-3 0  9990
2 81921  65.7098  73.2329 0859100 186.4681 172.4663 13.14405369  3762
UNKNOWN                 
1 81946U 87079    25180.22567454  .00000536  00000+0  19516-2 0  9997
2 81946  66.4200 112.8572 0665622  71.9470   0.7855 12.42553971527197
UNKNOWN                 
1 81947U          25180.50047306  .00003091  00000+0  29029-3 0  9997
2 81947  66.0752 271.0970 0399627 244.2796 111.6549 14.50373500606897
UNKNOWN                 
1 81964U          25180.35804139  .00000136  00000+0  15735-3 0  9990
2 81964  66.5858 311.9371 0039300 207.8391 152.0586 13.95669848590828
UNKNOWN                 
1 81969U          25180.86770366  .00005563  00000+0  36960-3 0  9997
2 81969  86.6744 225.1060 0009599  66.5732 293.6513 15.06971999415169
UNKNOWN                 
1 81995U          25180.40225971  .00003366  00000+0  70016-3 0  9992
2 81995  65.7445 198.0627 0518328  19.4236 342.5806 14.01096754580907
UNKNOWN                 
1 82043U          25181.24078747  .00001745  00000+0  50028-3 0  9997
2 82043  97.9124 344.1281 0234345 220.5743 137.7770 14.31325020550168
UNKNOWN                 
1 82051U          25181.47396447  .00002542  00000+0  88521-3 0  9996
2 82051  98.7528 264.8260 0095119  28.5343 332.1002 14.33770282548718
UNKNOWN                 
1 82073U          25181.51735108  .00001502  00000+0  39586-3 0  9998
2 82073  97.7612 273.4122 0211965  71.6873 290.7248 14.37713573551375
UNKNOWN                 
1 82139U          25181.44833896  .00001649  00000+0  85327-3 0  9992
2 82139  99.0350 247.3777 0085324 149.3047 211.3157 14.14473519456743
UNKNOWN                 
1 82162U          25181.50212079  .00002643  00000+0  40609-2 0  9997
2 82162 100.4809  96.7317 0047581 280.6757  78.9020 13.52168034481963
UNKNOWN                 
1 82180U          25179.00870489  .00004781  00000+0  66802-3 0  9993
2 82180  65.6582  40.0048 0343724 301.2597  55.5249 14.45367694577478
UNKNOWN                 
1 82189U          25180.74038722  .00000151  00000+0  62088-4 0  9991
2 82189  74.0354 352.6427 0017022 225.9425 134.0327 14.35064049608609
UNKNOWN                 
1 82199U          25180.26388681  .00000372  00000+0  31020-3 0  9997
2 82199  82.9666 359.0305 0037940 147.9838  32.8930 13.85573715586634
UNKNOWN                 
1 82205U          25181.08382070  .00000639  00000+0  21969-3 0  9999
2 82205  63.0108 355.1051 0493779 275.7913  78.7064 13.92192430584935
UNKNOWN                 
1 82223U          25179.10513554  .00001345  00000+0  75689-3 0  9995
2 82223  99.3324  58.6274 0071739  91.6303 269.3085 14.10950463425142
UNKNOWN                 
1 82250U          25180.20100534  .00001892  00000+0  10250-2 0  9997
2 82250  98.9124  86.4743 0071641 305.5624 211.9066 14.12413256593111
UNKNOWN                 
1 82272U          25174.56744061  .00000073  00000+0  36972-3 0  9992
2 82272  67.5199 152.5326 0760585 216.9334 137.6932 12.33393899250708
UNKNOWN                 
1 82295U          25173.46826275  .00000534  00000+0  21784-3 0  9990
2 82295  66.6193 243.7548 0126339 340.4303  19.1967 14.30786380554932
UNKNOWN                 
1 82303U          25181.36849515  .00017061  00000+0  16401-1 0  9991
2 82303  81.9311 144.6438 0123131  59.8453  90.9976 13.76688093491607
UNKNOWN                 
1 82311U          25180.62065735  .00000363  00000+0  57330-3 0  9997
2 82311  99.4469 241.9003 0108715   8.1028 352.1834 13.54279014527835
UNKNOWN                 
1 82363U          25178.05742114  .00000270  00000+0  51034-3 0  9993
2 82363  66.9357 195.1611 0465102 272.9367  81.8557 13.15440751268076
UNKNOWN                 
1 82369U 99025    25171.34164687  .00000551  00000+0  40463-3 0  9998
2 82369  98.9070 191.5905 0084995 103.2273 257.8389 13.98055267532666
UNKNOWN                 
1 82381U          25179.12568710  .00009021  00000+0  14091-2 0  9994
2 82381  98.4106  37.2490 0010074 325.8309  34.2248 14.73038901486084
UNKNOWN                 
1 82402U          25180.08991612  .00002759  00000+0  21342-3 0  9995
2 82402  86.6629 227.3714 0010549  60.5321 299.6963 15.01038280429453
UNKNOWN                 
1 82410U          25158.49405845  .00000340  00000+0  41373-3 0  9992
2 82410  66.6537  70.7803 0061474 165.9824 194.2971 13.77128599560817
UNKNOWN                 
1 82432U 93036    25174.64733411  .00001479  00000+0  32361-3 0  9996
2 82432  74.0066 308.5454 0056596 154.7161 205.6793 14.57673207457829
UNKNOWN                 
1 82448U          25180.55848976  .00003187  00000+0  24578-3 0  9991
2 82448  85.8718 287.9518 0010808 133.5383 226.6749 15.01199051412092
UNKNOWN                 
1 82453U          25181.32399094  .00000025  00000+0  51709-3 0  9999
2 82453 102.1491 137.9997 0093641 151.7870 208.8309 12.39684335525566
UNKNOWN                 
1 82458U          25172.56449553  .00001937  00000+0  91382-3 0  9990
2 82458  66.5145 276.5799 0045836 138.5652 221.8931 14.21439102585277
UNKNOWN                 
1 82484U          25179.51593347  .00000124  00000+0  23664-3 0  9997
2 82484  99.3700 209.5735 0042813 258.9679 100.6643 13.55712153567978
UNKNOWN                 
1 82494U 93036    25180.75550380  .00008075  00000+0  10815-2 0  9993
2 82494  74.0115 350.4199 0010048 150.6040 209.5703 14.79535348 60378
UNKNOWN                 
1 82500U          25172.25690052  .00001924  00000+0  90970-3 0  9994
2 82500  70.9666  12.5745 0124221  22.2073 338.4364 14.16980983594225
UNKNOWN                 
1 82524U          25181.22170433  .00003166  00000+0  10595-2 0  9997
2 82524  73.2834 138.2601 0141339 272.1475 150.3651 14.32374086553327
UNKNOWN                 
1 82529U          25180.51272183  .00001093  00000+0  17500-2 0  9998
2 82529  99.7951 269.1293 0235906 286.4234  90.4280 13.40927896567464
UNKNOWN                 
1 82545U          25172.06407559 -.00000077  00000+0 -93785-3 0  9997
2 82545  64.8840  91.8994 0182067 323.2216  35.6332 11.30807057419164
UNKNOWN                 
1 82560U          25179.09206683  .00000755  00000+0  65208-3 0  9999
2 82560  99.9777 109.4825 0012936  29.9479 346.6422 13.90088197588577
UNKNOWN                 
1 82597U          25178.14871571  .00000721  00000+0  27185-3 0  9993
2 82597  66.7695 231.5593 0086026  73.4595 287.5934 14.34963947604788
UNKNOWN                 
1 82617U          25180.78370385  .00000255  00000+0  73834-4 0  9991
2 82617  74.0255 195.0555 0038570 181.7833 178.3196 14.49105739612785
UNKNOWN                 
1 82627U          25178.52848116  .00000823  00000+0  21376-2 0  9996
2 82627  82.4798   8.5733 0011404 166.9459 223.2566 13.16039720556702
UNKNOWN                 
1 82642U          25181.49093227  .00000997  00000+0  57888-3 0  9998
2 82642  98.9771  93.3056 0138034 339.9042  19.6722 14.06420789592903
UNKNOWN                 
1 82683U 99057    25181.01052432  .00001034  00000+0  40619-3 0  9991
2 82683  98.1876 262.3173 0212980 160.4783 200.4709 14.19573770438756
UNKNOWN                 
1 82693U          25177.65710873  .00001767  00000+0  21068-2 0  9996
2 82693 100.5323 125.8011 0045933  81.1180 279.5158 13.68488214530623
UNKNOWN                 
1 82698U          25176.47065007  .00001184  00000+0  73967-3 0  9991
2 82698  61.6112 246.1176 0690088 226.1814 128.0127 13.28806344515746
UNKNOWN                 
1 82708U          25177.23378404  .00000813  00000+0  32783-2 0  9994
2 82708 102.1744   4.0125 0058492 270.4799  88.9590 12.90192290501655
UNKNOWN                 
1 82729U          25181.39642486  .00001708  00000+0  59054-2 0  9997
2 82729  67.9655  71.6314 0826702 124.4114 243.7881 12.17550904515077
UNKNOWN                 
1 82739U          25180.71916089  .00000913  00000+0  79156-3 0  9999
2 82739  99.0738 342.9903 0174377  18.1634 358.0462 13.82006198583179
UNKNOWN                 
1 82741U          25181.41347050  .00001724  00000+0  19393-2 0  9993
2 82741 102.8498 163.8069 0197445 277.8477  80.0282 13.65081084574519
UNKNOWN                 
1 82783U          25175.55174330 -.00000143  00000+0 -44093-3 0  9998
2 82783  90.3314  32.7855 0020901 211.9313 148.0548 13.08798471481968
UNKNOWN                 
1 82798U          25176.69226399  .00001227  00000+0  54606-3 0  9996
2 82798  82.9511 327.9615 0029190 325.5653  50.0277 14.21996208288185
UNKNOWN                 
1 82820U          25180.34136254  .00002166  00000+0  79312-3 0  9993
2 82820  99.7804 319.3915 0052484 129.3919 231.1926 14.33352943601780
